{"type": "FeatureCollection", "features": [ {"type": "Feature", "properties": {"norad_id": 66913, "name": "2025-284A", "group": "last-30-days", "lat": -31.332260723017193, "lon": -39.349213819512954, "alt_km": 504.13708841432344, "timestamp": "2025-12-08T19:31:47.637843+00:00", "meta": {"OBJECT_NAME": "2025-284A", "OBJECT_ID": "2025-284A", "EPOCH": "2025-12-05T19:30:25.528608", "MEAN_MOTION": 15.20033669, "ECCENTRICITY": 0.00128266, "INCLINATION": 80.4023, "RA_OF_ASC_NODE": 138.5488, "ARG_OF_PERICENTER": 252.3263, "MEAN_ANOMALY": 107.6565, "EPHEMERIS_TYPE": 0, "CLASSIFICATION_TYPE": "U", "NORAD_CAT_ID": 66913, "ELEMENT_SET_NO": 999, "REV_AT_EPOCH": 7, "BSTAR": 0.00014555981, "MEAN_MOTION_DOT": 3.163e-05, "MEAN_MOTION_DDOT": 0}, "tle": {"line1": "1 66913U 25284A   25339.81279547  .00003163  00000+0  14556-3 0  9997", "line2": "2 66913  80.4023 138.5488 0012826 252.3263 107.6565 15.20033669    75"}}, "geometry": {"type": "Point", "coordinates": [-39.349213819512954, -31.332260723017193]}}, {"type": "Feature", "properties": {"norad_id": 66915, "name": "HULIANWANG DIGUI 14A", "group": "last-30-days", "lat": 42.27093509180971, "lon": -96.53108634616012, "alt_km": 868.2793305387513, "timestamp": "2025-12-08T19:31:47.637853+00:00", "meta": {"OBJECT_NAME": "HULIANWANG DIGUI 14A", "OBJECT_ID": "2025-285A", "EPOCH": "2025-12-06T08:58:45.410016", "MEAN_MOTION": 14.06225102, "ECCENTRICITY": 0.00087698, "INCLINATION": 49.9887, "RA_OF_ASC_NODE": 143.2276, "ARG_OF_PERICENTER": 217.1051, "MEAN_ANOMALY": 142.9249, "EPHEMERIS_TYPE": 0, "CLASSIFICATION_TYPE": "U", "NORAD_CAT_ID": 66915, "ELEMENT_SET_NO": 999, "REV_AT_EPOCH": 1, "BSTAR": 1.8511052e-05, "MEAN_MOTION_DOT": -1.22e-06, "MEAN_MOTION_DDOT": 0}, "tle": {"line1": "1 66915U 25285A   25340.37413669 -.00000122  00000+0  18511-4 0  9997", "line2": "2 66915  49.9887 143.2276 0008769 217.1051 142.9249 14.06225102    11"}}, "geometry": {"type": "Point", "coordinates": [-96.53108634616012, 42.27093509180971]}}, {"type": "Feature", "properties": {"norad_id": 66916, "name": "HULIANWANG DIGUI 14B", "group": "last-30-days", "lat": 43.451498158664975, "lon": -99.35730638578961, "alt_km": 872.5015239028489, "timestamp": "2025-12-08T19:31:47.637862+00:00", "meta": {"OBJECT_NAME": "HULIANWANG DIGUI 14B", "OBJECT_ID": "2025-285B", "EPOCH": "2025-12-06T12:23:28.538592", "MEAN_MOTION": 14.0595389, "ECCENTRICITY": 0.0008093, "INCLINATION": 50.0119, "RA_OF_ASC_NODE": 142.6984, "ARG_OF_PERICENTER": 262.9615, "MEAN_ANOMALY": 97.037, "EPHEMERIS_TYPE": 0, "CLASSIFICATION_TYPE": "U", "NORAD_CAT_ID": 66916, "ELEMENT_SET_NO": 999, "REV_AT_EPOCH": 3, "BSTAR": 1.7671e-05, "MEAN_MOTION_DOT": -1.23e-06, "MEAN_MOTION_DDOT": 0}, "tle": {"line1": "1 66916U 25285B   25340.51630253 -.00000123  00000+0  17671-4 0  9991", "line2": "2 66916  50.0119 142.6984 0008093 262.9615  97.0370 14.05953890    34"}}, "geometry": {"type": "Point", "coordinates": [-99.35730638578961, 43.451498158664975]}}, {"type": "Feature", "properties": {"norad_id": 66917, "name": "HULIANWANG DIGUI 14C", "group": "last-30-days", "lat": 43.69793097517649, "lon": -100.05245013215267, "alt_km": 873.4431630302952, "timestamp": "2025-12-08T19:31:47.637871+00:00", "meta": {"OBJECT_NAME": "HULIANWANG DIGUI 14C", "OBJECT_ID": "2025-285C", "EPOCH": "2025-12-08T08:44:38.755680", "MEAN_MOTION": 14.05578781, "ECCENTRICITY": 0.0007507, "INCLINATION": 50.0019, "RA_OF_ASC_NODE": 135.1297, "ARG_OF_PERICENTER": 270.467, "MEAN_ANOMALY": 89.5375, "EPHEMERIS_TYPE": 0, "CLASSIFICATION_TYPE": "U", "NORAD_CAT_ID": 66917, "ELEMENT_SET_NO": 999, "REV_AT_EPOCH": 29, "BSTAR": -6.4208e-06, "MEAN_MOTION_DOT": -1.63e-06, "MEAN_MOTION_DDOT": 0}, "tle": {"line1": "1 66917U 25285C   25342.36433745 -.00000163  00000+0 -64208-5 0  9998", "line2": "2 66917  50.0019 135.1297 0007507 270.4670  89.5375 14.05578781   293"}}, "geometry": {"type": "Point", "coordinates": [-100.05245013215267, 43.69793097517649]}}, {"type": "Feature", "properties": {"norad_id": 66918, "name": "HULIANWANG DIGUI 14D", "group": "last-30-days", "lat": 42.966597858386734, "lon": -98.13532155947303, "alt_km": 872.6388860110328, "timestamp": "2025-12-08T19:31:47.637881+00:00", "meta": {"OBJECT_NAME": "HULIANWANG DIGUI 14D", "OBJECT_ID": "2025-285D", "EPOCH": "2025-12-08T10:26:43.431360", "MEAN_MOTION": 14.05959486, "ECCENTRICITY": 0.0008191, "INCLINATION": 50.0064, "RA_OF_ASC_NODE": 134.8446, "ARG_OF_PERICENTER": 270.94, "MEAN_ANOMALY": 89.0567, "EPHEMERIS_TYPE": 0, "CLASSIFICATION_TYPE": "U", "NORAD_CAT_ID": 66918, "ELEMENT_SET_NO": 999, "REV_AT_EPOCH": 30, "BSTAR": 1.1296e-05, "MEAN_MOTION_DOT": -1.34e-06, "MEAN_MOTION_DDOT": 0}, "tle": {"line1": "1 66918U 25285D   25342.43522490 -.00000134  00000+0  11296-4 0  9998", "line2": "2 66918  50.0064 134.8446 0008191 270.9400  89.0567 14.05959486   307"}}, "geometry": {"type": "Point", "coordinates": [-98.13532155947303, 42.966597858386734]}}, {"type": "Feature", "properties": {"norad_id": 66919, "name": "HULIANWANG DIGUI 14E", "group": "last-30-days", "lat": 42.59974750379977, "lon": -97.19893780888482, "alt_km": 873.8319842368865, "timestamp": "2025-12-08T19:31:47.637890+00:00", "meta": {"OBJECT_NAME": "HULIANWANG DIGUI 14E", "OBJECT_ID": "2025-285E", "EPOCH": "2025-12-08T13:51:11.269728", "MEAN_MOTION": 14.05836701, "ECCENTRICITY": 0.0008492, "INCLINATION": 50.0147, "RA_OF_ASC_NODE": 134.2716, "ARG_OF_PERICENTER": 289.3881, "MEAN_ANOMALY": 70.6107, "EPHEMERIS_TYPE": 0, "CLASSIFICATION_TYPE": "U", "NORAD_CAT_ID": 66919, "ELEMENT_SET_NO": 999, "REV_AT_EPOCH": 32, "BSTAR": -1.2151e-05, "MEAN_MOTION_DOT": -1.72e-06, "MEAN_MOTION_DDOT": 0}, "tle": {"line1": "1 66919U 25285E   25342.57721377 -.00000172  00000+0 -12151-4 0  9993", "line2": "2 66919  50.0147 134.2716 0008492 289.3881  70.6107 14.05836701   327"}}, "geometry": {"type": "Point", "coordinates": [-97.19893780888482, 42.59974750379977]}}, {"type": "Feature", "properties": {"norad_id": 66920, "name": "HULIANWANG DIGUI 14F", "group": "last-30-days", "lat": 42.071524066439295, "lon": -95.96755280035845, "alt_km": 870.4368604237206, "timestamp": "2025-12-08T19:31:47.637899+00:00", "meta": {"OBJECT_NAME": "HULIANWANG DIGUI 14F", "OBJECT_ID": "2025-285F", "EPOCH": "2025-12-07T22:29:57.568704", "MEAN_MOTION": 14.06197734, "ECCENTRICITY": 0.0005825, "INCLINATION": 50.0078, "RA_OF_ASC_NODE": 136.8777, "ARG_OF_PERICENTER": 272.4455, "MEAN_ANOMALY": 87.5784, "EPHEMERIS_TYPE": 0, "CLASSIFICATION_TYPE": "U", "NORAD_CAT_ID": 66920, "ELEMENT_SET_NO": 999, "REV_AT_EPOCH": 23, "BSTAR": 0.00011290179, "MEAN_MOTION_DOT": 3.4e-07, "MEAN_MOTION_DDOT": 0}, "tle": {"line1": "1 66920U 25285F   25341.93747186  .00000034  00000+0  11290-3 0  9997", "line2": "2 66920  50.0078 136.8777 0005825 272.4455  87.5784 14.06197734   239"}}, "geometry": {"type": "Point", "coordinates": [-95.96755280035845, 42.071524066439295]}}, {"type": "Feature", "properties": {"norad_id": 66921, "name": "HULIANWANG DIGUI 14G", "group": "last-30-days", "lat": 42.425260635486545, "lon": -96.79262161014145, "alt_km": 872.4134049924915, "timestamp": "2025-12-08T19:31:47.637910+00:00", "meta": {"OBJECT_NAME": "HULIANWANG DIGUI 14G", "OBJECT_ID": "2025-285G", "EPOCH": "2025-12-08T08:44:01.536288", "MEAN_MOTION": 14.05883004, "ECCENTRICITY": 0.0006916, "INCLINATION": 50.0115, "RA_OF_ASC_NODE": 135.1359, "ARG_OF_PERICENTER": 280.588, "MEAN_ANOMALY": 79.4246, "EPHEMERIS_TYPE": 0, "CLASSIFICATION_TYPE": "U", "NORAD_CAT_ID": 66921, "ELEMENT_SET_NO": 999, "REV_AT_EPOCH": 29, "BSTAR": 1.2065e-05, "MEAN_MOTION_DOT": -1.32e-06, "MEAN_MOTION_DDOT": 0}, "tle": {"line1": "1 66921U 25285G   25342.36390667 -.00000132  00000+0  12065-4 0  9996", "line2": "2 66921  50.0115 135.1359 0006916 280.5880  79.4246 14.05883004   294"}}, "geometry": {"type": "Point", "coordinates": [-96.79262161014145, 42.425260635486545]}}, {"type": "Feature", "properties": {"norad_id": 66922, "name": "HULIANWANG DIGUI 14H", "group": "last-30-days", "lat": 41.92521449954488, "lon": -95.62887310691363, "alt_km": 872.1892765670591, "timestamp": "2025-12-08T19:31:47.637920+00:00", "meta": {"OBJECT_NAME": "HULIANWANG DIGUI 14H", "OBJECT_ID": "2025-285H", "EPOCH": "2025-12-08T08:43:47.873856", "MEAN_MOTION": 14.05998696, "ECCENTRICITY": 0.0006903, "INCLINATION": 50.0079, "RA_OF_ASC_NODE": 135.1325, "ARG_OF_PERICENTER": 286.9247, "MEAN_ANOMALY": 73.0902, "EPHEMERIS_TYPE": 0, "CLASSIFICATION_TYPE": "U", "NORAD_CAT_ID": 66922, "ELEMENT_SET_NO": 999, "REV_AT_EPOCH": 29, "BSTAR": -1.047e-05, "MEAN_MOTION_DOT": -1.7e-06, "MEAN_MOTION_DDOT": 0}, "tle": {"line1": "1 66922U 25285H   25342.36374854 -.00000170  00000+0 -10470-4 0  9998", "line2": "2 66922  50.0079 135.1325 0006903 286.9247  73.0902 14.05998696   293"}}, "geometry": {"type": "Point", "coordinates": [-95.62887310691363, 41.92521449954488]}}, {"type": "Feature", "properties": {"norad_id": 66923, "name": "HULIANWANG DIGUI 14J", "group": "last-30-days", "lat": 40.92254537429703, "lon": -93.4047471423277, "alt_km": 869.3738817268513, "timestamp": "2025-12-08T19:31:47.637930+00:00", "meta": {"OBJECT_NAME": "HULIANWANG DIGUI 14J", "OBJECT_ID": "2025-285J", "EPOCH": "2025-12-07T22:29:36.786048", "MEAN_MOTION": 14.06515715, "ECCENTRICITY": 0.00053876, "INCLINATION": 50.0075, "RA_OF_ASC_NODE": 136.8754, "ARG_OF_PERICENTER": 280.8946, "MEAN_ANOMALY": 79.1354, "EPHEMERIS_TYPE": 0, "CLASSIFICATION_TYPE": "U", "NORAD_CAT_ID": 66923, "ELEMENT_SET_NO": 999, "REV_AT_EPOCH": 23, "BSTAR": -4.7305e-07, "MEAN_MOTION_DOT": -1.53e-06, "MEAN_MOTION_DDOT": 0}, "tle": {"line1": "1 66923U 25285J   25341.93723132 -.00000153  00000+0 -47305-6 0  9998", "line2": "2 66923  50.0075 136.8754 0005387 280.8946  79.1354 14.06515715   238"}}, "geometry": {"type": "Point", "coordinates": [-93.4047471423277, 40.92254537429703]}}]}